[
  {
    "OBJECT_NAME": "STARLINK-5994",
    "OBJECT_ID": "23064K",
    "EPOCH": "2025-11-11T07:28:18.795360",
    "MEAN_MOTION": 14.98326548,
    "ECCENTRICITY": 0.0002632,
    "INCLINATION": 70.0013,
    "RA_OF_ASC_NODE": 82.951,
    "ARG_OF_PERICENTER": 270.9734,
    "MEAN_ANOMALY": 89.1123,
    "EPHEMERIS_TYPE": 0,
    "CLASSIFICATION_TYPE": "U",
    "NORAD_CAT_ID": 56457,
    "ELEMENT_SET_NO": 999,
    "REV_AT_EPOCH": 13751,
    "BSTAR": 0.0,
    "MEAN_MOTION_DOT": -6.22e-06,
    "MEAN_MOTION_DDOT": 0.0,
    "TLE_LINE1": "1 56457U 23064K   25315.31132865 -.00000622  00000+0 -44342-4 0  9999",
    "TLE_LINE2": "2 56457  70.0013  82.9510 0002632 270.9734  89.1123 14.98326548137511",
    "COMMENT": "Grouped by shell and plane from TLE"
  },
  {
    "OBJECT_NAME": "STARLINK-6050",
    "OBJECT_ID": "23064L",
    "EPOCH": "2025-11-10T18:51:16.008480",
    "MEAN_MOTION": 14.98338073,
    "ECCENTRICITY": 0.0003041,
    "INCLINATION": 69.9996,
    "RA_OF_ASC_NODE": 84.3261,
    "ARG_OF_PERICENTER": 269.1981,
    "MEAN_ANOMALY": 90.883,
    "EPHEMERIS_TYPE": 0,
    "CLASSIFICATION_TYPE": "U",
    "NORAD_CAT_ID": 56458,
    "ELEMENT_SET_NO": 999,
    "REV_AT_EPOCH": 13743,
    "BSTAR": 0.00021127000000000003,
    "MEAN_MOTION_DOT": 2.429e-05,
    "MEAN_MOTION_DDOT": 0.0,
    "TLE_LINE1": "1 56458U 23064L   25314.78560195  .00002429  00000+0  21127-3 0  9991",
    "TLE_LINE2": "2 56458  69.9996  84.3261 0003041 269.1981  90.8830 14.98338073137438",
    "COMMENT": "Grouped by shell and plane from TLE"
  },
  {
    "OBJECT_NAME": "STARLINK-6048",
    "OBJECT_ID": "23064M",
    "EPOCH": "2025-11-11T02:04:04.960128",
    "MEAN_MOTION": 14.98330696,
    "ECCENTRICITY": 0.0003053,
    "INCLINATION": 69.9993,
    "RA_OF_ASC_NODE": 83.3671,
    "ARG_OF_PERICENTER": 269.8137,
    "MEAN_ANOMALY": 90.2672,
    "EPHEMERIS_TYPE": 0,
    "CLASSIFICATION_TYPE": "U",
    "NORAD_CAT_ID": 56459,
    "ELEMENT_SET_NO": 999,
    "REV_AT_EPOCH": 13747,
    "BSTAR": 0.00019663,
    "MEAN_MOTION_DOT": 2.254e-05,
    "MEAN_MOTION_DDOT": 0.0,
    "TLE_LINE1": "1 56459U 23064M   25315.08616852  .00002254  00000+0  19663-3 0  9996",
    "TLE_LINE2": "2 56459  69.9993  83.3671 0003053 269.8137  90.2672 14.98330696137478",
    "COMMENT": "Grouped by shell and plane from TLE"
  },
  {
    "OBJECT_NAME": "STARLINK-6047",
    "OBJECT_ID": "23064N",
    "EPOCH": "2025-11-11T02:21:52.417440",
    "MEAN_MOTION": 14.98332148,
    "ECCENTRICITY": 0.0003233,
    "INCLINATION": 69.9992,
    "RA_OF_ASC_NODE": 83.4118,
    "ARG_OF_PERICENTER": 272.4886,
    "MEAN_ANOMALY": 87.5903,
    "EPHEMERIS_TYPE": 0,
    "CLASSIFICATION_TYPE": "U",
    "NORAD_CAT_ID": 56460,
    "ELEMENT_SET_NO": 999,
    "REV_AT_EPOCH": 13748,
    "BSTAR": 9.5385e-05,
    "MEAN_MOTION_DOT": 1.045e-05,
    "MEAN_MOTION_DDOT": 0.0,
    "TLE_LINE1": "1 56460U 23064N   25315.09852335  .00001045  00000+0  95385-4 0  9990",
    "TLE_LINE2": "2 56460  69.9992  83.4118 0003233 272.4886  87.5903 14.98332148137488",
    "COMMENT": "Grouped by shell and plane from TLE"
  },
  {
    "OBJECT_NAME": "STARLINK-6037",
    "OBJECT_ID": "23064P",
    "EPOCH": "2025-11-11T01:57:49.961664",
    "MEAN_MOTION": 14.98332693,
    "ECCENTRICITY": 0.0003069,
    "INCLINATION": 69.9992,
    "RA_OF_ASC_NODE": 83.3511,
    "ARG_OF_PERICENTER": 270.2504,
    "MEAN_ANOMALY": 89.8304,
    "EPHEMERIS_TYPE": 0,
    "CLASSIFICATION_TYPE": "U",
    "NORAD_CAT_ID": 56461,
    "ELEMENT_SET_NO": 999,
    "REV_AT_EPOCH": 13748,
    "BSTAR": 0.0,
    "MEAN_MOTION_DOT": -3.19e-06,
    "MEAN_MOTION_DDOT": 0.0,
    "TLE_LINE1": "1 56461U 23064P   25315.08182826 -.00000319  00000+0 -18901-4 0  9995",
    "TLE_LINE2": "2 56461  69.9992  83.3511 0003069 270.2504  89.8304 14.98332693137480",
    "COMMENT": "Grouped by shell and plane from TLE"
  },
  {
    "OBJECT_NAME": "STARLINK-6051",
    "OBJECT_ID": "23064R",
    "EPOCH": "2025-11-11T07:46:20.323776",
    "MEAN_MOTION": 14.98337898,
    "ECCENTRICITY": 0.0003052,
    "INCLINATION": 69.9993,
    "RA_OF_ASC_NODE": 82.986,
    "ARG_OF_PERICENTER": 270.439,
    "MEAN_ANOMALY": 89.6419,
    "EPHEMERIS_TYPE": 0,
    "CLASSIFICATION_TYPE": "U",
    "NORAD_CAT_ID": 56463,
    "ELEMENT_SET_NO": 999,
    "REV_AT_EPOCH": 13751,
    "BSTAR": 2.5768000000000005e-05,
    "MEAN_MOTION_DOT": 2.15e-06,
    "MEAN_MOTION_DDOT": 0.0,
    "TLE_LINE1": "1 56463U 23064R   25315.32384634  .00000215  00000+0  25768-4 0  9997",
    "TLE_LINE2": "2 56463  69.9993  82.9860 0003052 270.4390  89.6419 14.98337898137513",
    "COMMENT": "Grouped by shell and plane from TLE"
  },
  {
    "OBJECT_NAME": "STARLINK-6043",
    "OBJECT_ID": "23064S",
    "EPOCH": "2025-11-11T02:15:51.945408",
    "MEAN_MOTION": 14.98331725,
    "ECCENTRICITY": 0.0003088,
    "INCLINATION": 69.9994,
    "RA_OF_ASC_NODE": 83.3968,
    "ARG_OF_PERICENTER": 273.0062,
    "MEAN_ANOMALY": 87.0744,
    "EPHEMERIS_TYPE": 0,
    "CLASSIFICATION_TYPE": "U",
    "NORAD_CAT_ID": 56464,
    "ELEMENT_SET_NO": 999,
    "REV_AT_EPOCH": 13748,
    "BSTAR": 8.223800000000001e-05,
    "MEAN_MOTION_DOT": 8.88e-06,
    "MEAN_MOTION_DDOT": 0.0,
    "TLE_LINE1": "1 56464U 23064S   25315.09435122  .00000888  00000+0  82238-4 0  9992",
    "TLE_LINE2": "2 56464  69.9994  83.3968 0003088 273.0062  87.0744 14.98331725137485",
    "COMMENT": "Grouped by shell and plane from TLE"
  },
  {
    "OBJECT_NAME": "STARLINK-6053",
    "OBJECT_ID": "23064U",
    "EPOCH": "2025-11-11T02:03:50.800896",
    "MEAN_MOTION": 14.98344155,
    "ECCENTRICITY": 0.0003026,
    "INCLINATION": 69.9992,
    "RA_OF_ASC_NODE": 83.3661,
    "ARG_OF_PERICENTER": 272.1077,
    "MEAN_ANOMALY": 87.9736,
    "EPHEMERIS_TYPE": 0,
    "CLASSIFICATION_TYPE": "U",
    "NORAD_CAT_ID": 56466,
    "ELEMENT_SET_NO": 999,
    "REV_AT_EPOCH": 13748,
    "BSTAR": 0.00015736,
    "MEAN_MOTION_DOT": 1.786e-05,
    "MEAN_MOTION_DDOT": 0.0,
    "TLE_LINE1": "1 56466U 23064U   25315.08600464  .00001786  00000+0  15736-3 0  9992",
    "TLE_LINE2": "2 56466  69.9992  83.3661 0003026 272.1077  87.9736 14.98344155137484",
    "COMMENT": "Grouped by shell and plane from TLE"
  },
  {
    "OBJECT_NAME": "STARLINK-5998",
    "OBJECT_ID": "23064W",
    "EPOCH": "2025-11-11T01:51:49.214880",
    "MEAN_MOTION": 14.98338385,
    "ECCENTRICITY": 0.0002999,
    "INCLINATION": 69.9996,
    "RA_OF_ASC_NODE": 83.336,
    "ARG_OF_PERICENTER": 274.4015,
    "MEAN_ANOMALY": 85.6801,
    "EPHEMERIS_TYPE": 0,
    "CLASSIFICATION_TYPE": "U",
    "NORAD_CAT_ID": 56468,
    "ELEMENT_SET_NO": 999,
    "REV_AT_EPOCH": 13748,
    "BSTAR": 0.00014832000000000002,
    "MEAN_MOTION_DOT": 1.677e-05,
    "MEAN_MOTION_DDOT": 0.0,
    "TLE_LINE1": "1 56468U 23064W   25315.07765295  .00001677  00000+0  14832-3 0  9992",
    "TLE_LINE2": "2 56468  69.9996  83.3360 0002999 274.4015  85.6801 14.98338385137487",
    "COMMENT": "Grouped by shell and plane from TLE"
  },
  {
    "OBJECT_NAME": "STARLINK-30375",
    "OBJECT_ID": "23131A",
    "EPOCH": "2025-11-11T01:04:44.385024",
    "MEAN_MOTION": 15.02540519,
    "ECCENTRICITY": 0.0001392,
    "INCLINATION": 43.0045,
    "RA_OF_ASC_NODE": 83.9779,
    "ARG_OF_PERICENTER": 274.6783,
    "MEAN_ANOMALY": 85.39,
    "EPHEMERIS_TYPE": 0,
    "CLASSIFICATION_TYPE": "U",
    "NORAD_CAT_ID": 57732,
    "ELEMENT_SET_NO": 999,
    "REV_AT_EPOCH": 12223,
    "BSTAR": 0.00012967,
    "MEAN_MOTION_DOT": 1.549e-05,
    "MEAN_MOTION_DDOT": 0.0,
    "TLE_LINE1": "1 57732U 23131A   25315.04495816  .00001549  00000+0  12967-3 0  9993",
    "TLE_LINE2": "2 57732  43.0045  83.9779 0001392 274.6783  85.3900 15.02540519122234",
    "COMMENT": "Grouped by shell and plane from TLE"
  },
  {
    "OBJECT_NAME": "STARLINK-30363",
    "OBJECT_ID": "23131N",
    "EPOCH": "2025-11-10T15:25:35.631264",
    "MEAN_MOTION": 15.02534969,
    "ECCENTRICITY": 0.0001509,
    "INCLINATION": 43.0038,
    "RA_OF_ASC_NODE": 86.1199,
    "ARG_OF_PERICENTER": 286.6346,
    "MEAN_ANOMALY": 73.4331,
    "EPHEMERIS_TYPE": 0,
    "CLASSIFICATION_TYPE": "U",
    "NORAD_CAT_ID": 57744,
    "ELEMENT_SET_NO": 999,
    "REV_AT_EPOCH": 12216,
    "BSTAR": 0.00012708,
    "MEAN_MOTION_DOT": 1.513e-05,
    "MEAN_MOTION_DDOT": 0.0,
    "TLE_LINE1": "1 57744U 23131N   25314.64277351  .00001513  00000+0  12708-3 0  9997",
    "TLE_LINE2": "2 57744  43.0038  86.1199 0001509 286.6346  73.4331 15.02534969122168",
    "COMMENT": "Grouped by shell and plane from TLE"
  },
  {
    "OBJECT_NAME": "STARLINK-30370",
    "OBJECT_ID": "23131V",
    "EPOCH": "2025-11-10T18:32:14.502912",
    "MEAN_MOTION": 15.02532027,
    "ECCENTRICITY": 0.0001363,
    "INCLINATION": 43.0051,
    "RA_OF_ASC_NODE": 85.4082,
    "ARG_OF_PERICENTER": 277.7846,
    "MEAN_ANOMALY": 82.2842,
    "EPHEMERIS_TYPE": 0,
    "CLASSIFICATION_TYPE": "U",
    "NORAD_CAT_ID": 57751,
    "ELEMENT_SET_NO": 999,
    "REV_AT_EPOCH": 12218,
    "BSTAR": 0.0,
    "MEAN_MOTION_DOT": -8.06e-06,
    "MEAN_MOTION_DDOT": 0.0,
    "TLE_LINE1": "1 57751U 23131V   25314.77239008 -.00000806  00000+0 -44579-4 0  9994",
    "TLE_LINE2": "2 57751  43.0051  85.4082 0001363 277.7846  82.2842 15.02532027122188",
    "COMMENT": "Grouped by shell and plane from TLE"
  }
]